{
  "norad_id": 63869,
  "name": "STARLINK-34006",
  "history": [
    {
      "epoch": "2026-04-12T20:40:02.987616Z",
      "apogee_km": 574.4199574552258,
      "perigee_km": 569.6877115198404,
      "latitude_deg": 1.8961407939899407e-05,
      "longitude_deg": -2.8483496838303113,
      "height_km": 573.8525524989311,
      "semi_major_axis_km": 6950.190834487533,
      "eccentricity": 0.00034044,
      "inclination_deg": 70.001,
      "raan_deg": 148.2243,
      "arg_perigee_deg": 285.4163,
      "mean_anomaly_deg": 74.662,
      "mean_motion_rev_day": 14.98330665
    },
    {
      "epoch": "2026-04-14T12:43:27.575328Z",
      "apogee_km": 572.9766514970588,
      "perigee_km": 571.9424027338246,
      "latitude_deg": -4.986442775336099e-05,
      "longitude_deg": 110.44250237457618,
      "height_km": 574.8171553795413,
      "semi_major_axis_km": 6950.596527115442,
      "eccentricity": 7.44e-05,
      "inclination_deg": 70.003,
      "raan_deg": 144.0127,
      "arg_perigee_deg": 82.7531,
      "mean_anomaly_deg": 277.3712,
      "mean_motion_rev_day": 14.98199485
    },
    {
      "epoch": "2026-04-15T01:32:25.920096Z",
      "apogee_km": 575.260267463028,
      "perigee_km": 568.9173523843765,
      "latitude_deg": 5.818755729409301e-05,
      "longitude_deg": -83.67140379765584,
      "height_km": 574.4195559631154,
      "semi_major_axis_km": 6950.225809923702,
      "eccentricity": 0.00045631,
      "inclination_deg": 70.0049,
      "raan_deg": 142.6682,
      "arg_perigee_deg": 271.778,
      "mean_anomaly_deg": 88.2857,
      "mean_motion_rev_day": 14.98319355
    },
    {
      "epoch": "2026-04-16T19:11:57.535008Z",
      "apogee_km": 574.4852101634251,
      "perigee_km": 569.6325833882956,
      "latitude_deg": 2.4011013116178936e-06,
      "longitude_deg": 5.359785219891503,
      "height_km": 574.4701538465533,
      "semi_major_axis_km": 6950.19589677586,
      "eccentricity": 0.0003491,
      "inclination_deg": 69.999,
      "raan_deg": 138.292,
      "arg_perigee_deg": 270.3918,
      "mean_anomaly_deg": 89.6841,
      "mean_motion_rev_day": 14.98329028
    },
    {
      "epoch": "2026-04-17T22:00:01.999584Z",
      "apogee_km": 574.5257482389679,
      "perigee_km": 569.8936201878068,
      "latitude_deg": -68.58539254095375,
      "longitude_deg": -153.20295824284514,
      "height_km": 595.074678171499,
      "semi_major_axis_km": 6950.346684213387,
      "eccentricity": 0.00033323,
      "inclination_deg": 69.9994,
      "raan_deg": 135.4764,
      "arg_perigee_deg": 269.1303,
      "mean_anomaly_deg": 352.7378,
      "mean_motion_rev_day": 14.98280269
    },
    {
      "epoch": "2026-04-18T19:16:01.136352Z",
      "apogee_km": 574.4362511001355,
      "perigee_km": 569.7128873177026,
      "latitude_deg": 2.2660777834653793e-05,
      "longitude_deg": -2.6785804571990557,
      "height_km": 574.4370246831068,
      "semi_major_axis_km": 6950.211569208919,
      "eccentricity": 0.0003398,
      "inclination_deg": 69.9994,
      "raan_deg": 133.2427,
      "arg_perigee_deg": 271.5849,
      "mean_anomaly_deg": 88.4921,
      "mean_motion_rev_day": 14.9832396
    },
    {
      "epoch": "2026-04-19T19:18:02.524896Z",
      "apogee_km": 574.4051755231712,
      "perigee_km": 569.7221303232318,
      "latitude_deg": -5.021725998992792e-06,
      "longitude_deg": -6.69640685944435,
      "height_km": 574.4345384256338,
      "semi_major_axis_km": 6950.200652923201,
      "eccentricity": 0.0003369,
      "inclination_deg": 69.9995,
      "raan_deg": 130.7177,
      "arg_perigee_deg": 271.3919,
      "mean_anomaly_deg": 88.6854,
      "mean_motion_rev_day": 14.9832749
    },
    {
      "epoch": "2026-04-20T09:43:15.235680Z",
      "apogee_km": 574.4146916662776,
      "perigee_km": 569.7027369797961,
      "latitude_deg": -6.238775984986293e-05,
      "longitude_deg": 134.89359316718708,
      "height_km": 574.4323132094069,
      "semi_major_axis_km": 6950.195714323037,
      "eccentricity": 0.00033898,
      "inclination_deg": 69.9995,
      "raan_deg": 129.2029,
      "arg_perigee_deg": 271.318,
      "mean_anomaly_deg": 88.759,
      "mean_motion_rev_day": 14.98329087
    },
    {
      "epoch": "2026-04-21T17:45:56.499264Z",
      "apogee_km": 574.4086997422346,
      "perigee_km": 569.67562773173,
      "latitude_deg": 6.709558077449524e-06,
      "longitude_deg": 9.539250340354442,
      "height_km": 574.4147781977133,
      "semi_major_axis_km": 6950.1791637369815,
      "eccentricity": 0.0003405,
      "inclination_deg": 70.0002,
      "raan_deg": 125.8365,
      "arg_perigee_deg": 271.3375,
      "mean_anomaly_deg": 88.7394,
      "mean_motion_rev_day": 14.98334439
    },
    {
      "epoch": "2026-04-22T08:11:08.992320Z",
      "apogee_km": 574.2599725355803,
      "perigee_km": 569.8076931000769,
      "latitude_deg": -5.5544558386886556e-05,
      "longitude_deg": 151.12885791654077,
      "height_km": 574.251161324738,
      "semi_major_axis_km": 6950.170832817828,
      "eccentricity": 0.0003203,
      "inclination_deg": 70.0014,
      "raan_deg": 124.3204,
      "arg_perigee_deg": 275.4231,
      "mean_anomaly_deg": 84.6562,
      "mean_motion_rev_day": 14.98337133
    },
    {
      "epoch": "2026-04-23T00:12:29.344608Z",
      "apogee_km": 573.9641805802412,
      "perigee_km": 570.0672299583966,
      "latitude_deg": 2.0584742267963977e-05,
      "longitude_deg": -91.54753064906888,
      "height_km": 574.4482063099216,
      "semi_major_axis_km": 6950.152705269319,
      "eccentricity": 0.00028035,
      "inclination_deg": 70.002,
      "raan_deg": 122.6368,
      "arg_perigee_deg": 269.8504,
      "mean_anomaly_deg": 90.2334,
      "mean_motion_rev_day": 14.98342995
    },
    {
      "epoch": "2026-04-24T09:51:17.916192Z",
      "apogee_km": 574.417187463956,
      "perigee_km": 569.5979572174956,
      "latitude_deg": 1.5968419362691034e-05,
      "longitude_deg": 118.83445792943104,
      "height_km": 574.3795021990701,
      "semi_major_axis_km": 6950.144572340726,
      "eccentricity": 0.0003467,
      "inclination_deg": 70.0002,
      "raan_deg": 119.103,
      "arg_perigee_deg": 271.3315,
      "mean_anomaly_deg": 88.7447,
      "mean_motion_rev_day": 14.98345625
    },
    {
      "epoch": "2026-04-25T17:53:58.975008Z",
      "apogee_km": 574.3603809714978,
      "perigee_km": 569.7009885556317,
      "latitude_deg": 8.249300830503039e-06,
      "longitude_deg": -6.519154488888164,
      "height_km": 574.4601464079051,
      "semi_major_axis_km": 6950.1676847635645,
      "eccentricity": 0.0003352,
      "inclination_deg": 70.0004,
      "raan_deg": 115.7365,
      "arg_perigee_deg": 269.9599,
      "mean_anomaly_deg": 90.1176,
      "mean_motion_rev_day": 14.98338151
    },
    {
      "epoch": "2026-04-26T08:19:11.367840Z",
      "apogee_km": 574.3836644959683,
      "perigee_km": 569.6633934711044,
      "latitude_deg": 1.0158709732172924e-05,
      "longitude_deg": 135.07239674197842,
      "height_km": 574.4470178473275,
      "semi_major_axis_km": 6950.160528983536,
      "eccentricity": 0.00033958,
      "inclination_deg": 70.0002,
      "raan_deg": 114.2219,
      "arg_perigee_deg": 270.1061,
      "mean_anomaly_deg": 89.9709,
      "mean_motion_rev_day": 14.98340465
    },
    {
      "epoch": "2026-04-27T09:57:16.814016Z",
      "apogee_km": 574.2744489774632,
      "perigee_km": 569.8902506116128,
      "latitude_deg": 1.6150483429471133e-05,
      "longitude_deg": 106.80272149191747,
      "height_km": 574.4271180692823,
      "semi_major_axis_km": 6950.219349794537,
      "eccentricity": 0.0003154,
      "inclination_deg": 70.0001,
      "raan_deg": 111.5277,
      "arg_perigee_deg": 272.1652,
      "mean_anomaly_deg": 87.9146,
      "mean_motion_rev_day": 14.98321444
    },
    {
      "epoch": "2026-04-28T16:23:53.764224Z",
      "apogee_km": 574.0147575946885,
      "perigee_km": 570.0698358258751,
      "latitude_deg": 5.6172983771112806e-06,
      "longitude_deg": 5.700085330418902,
      "height_km": 574.4124038206711,
      "semi_major_axis_km": 6950.179296710281,
      "eccentricity": 0.0002838,
      "inclination_deg": 70.0013,
      "raan_deg": 108.3293,
      "arg_perigee_deg": 271.6639,
      "mean_anomaly_deg": 88.4195,
      "mean_motion_rev_day": 14.98334396
    },
    {
      "epoch": "2026-04-29T08:25:14.442240Z",
      "apogee_km": 574.1497670225463,
      "perigee_km": 569.9521315087077,
      "latitude_deg": 4.7551173469523847e-05,
      "longitude_deg": 123.02282540315198,
      "height_km": 574.7283303357301,
      "semi_major_axis_km": 6950.187949265627,
      "eccentricity": 0.00030198,
      "inclination_deg": 70.0006,
      "raan_deg": 106.6462,
      "arg_perigee_deg": 263.1631,
      "mean_anomaly_deg": 96.9185,
      "mean_motion_rev_day": 14.98331598
    },
    {
      "epoch": "2026-04-30T08:27:13.517856Z",
      "apogee_km": 574.0499694756163,
      "perigee_km": 569.7876392519156,
      "latitude_deg": -1.5087259430640387e-05,
      "longitude_deg": 119.01385094763134,
      "height_km": 574.2295327590543,
      "semi_major_axis_km": 6950.055804363766,
      "eccentricity": 0.00030664,
      "inclination_deg": 70.0004,
      "raan_deg": 104.1204,
      "arg_perigee_deg": 273.143,
      "mean_anomaly_deg": 86.9378,
      "mean_motion_rev_day": 14.98374331
    },
    {
      "epoch": "2026-05-02T06:55:08.897952Z",
      "apogee_km": 574.4425501782625,
      "perigee_km": 569.7455840231169,
      "latitude_deg": -4.9548674516894766e-05,
      "longitude_deg": 135.2443202957869,
      "height_km": 574.661737470216,
      "semi_major_axis_km": 6950.23106710069,
      "eccentricity": 0.0003379,
      "inclination_deg": 70.0,
      "raan_deg": 99.2399,
      "arg_perigee_deg": 266.5862,
      "mean_anomaly_deg": 93.491,
      "mean_motion_rev_day": 14.98317655
    }
  ]
}